STARLINK-36590          
1 67577U 26016S   26046.83334490 -.00076259  00000+0 -51537-3 0  9993
2 67577  97.2849 106.2248 0001621  88.4952 203.8523 15.75171482  4538
STARLINK-36613          
1 67578U 26016T   26046.77054734  .00270169  00000+0  13597-2 0  9994
2 67578  97.2847 106.1856 0001172 111.3388 248.8005 15.80949076  3352
STARLINK-36571          
1 67579U 26016U   26046.53155356  .00192802  00000+0  12603-2 0  9995
2 67579  97.2846 105.8990 0001248  81.5277 278.6130 15.75267538  3312
STARLINK-36612          
1 67580U 26016V   26046.45146254  .00303675  00000+0  15226-2 0  9991
2 67580  97.2843 105.8545 0001165  89.3841 270.7561 15.80944801  3309
STARLINK-36632          
1 67581U 26016W   26046.58335648 -.00137514  00000+0 -93401-3 0  9994
2 67581  97.2849 105.9816 0001173  86.9247 274.7681 15.75238719  4496
STARLINK-36609          
1 67582U 26016X   26046.53543324  .00134714  00000+0  88727-3 0  9994
2 67582  97.2848 105.8933 0001093  77.5809 282.5579 15.75257841  3316
STARLINK-36577          
1 67583U 26016Y   26046.44998768  .00317976  00000+0  15908-2 0  9994
2 67583  97.2848 105.8564 0001313  90.7203 269.4216 15.80956102  3300
STARLINK-36419          
1 67584U 26016Z   26046.44599096  .00288823  00000+0  14514-2 0  9996
2 67584  97.2836 105.8618 0001058 105.4714 254.6671 15.80934281  3300
STARLINK-36560          
1 67585U 26016AA  26046.44427055  .00238244  00000+0  12057-2 0  9994
2 67585  97.2837 105.8641 0000870  88.8883 271.2485 15.80910628  3307
NAVSTAR 85 (USA 581)    
1 67588U 26017A   26046.54502406  .00000017  00000+0  00000+0 0  9990
2 67588  55.0067  93.6366 0000902  51.2369 308.8521  2.00561312429179
STARLINK-36641          
1 67589U 26018A   26046.83334490  .00072933  00000+0  48711-3 0  9991
2 67589  97.2844 111.5162 0001315  83.2905 292.5092 15.75121799  3835
STARLINK-36376          
1 67590U 26018B   26046.81980743  .00320645  00000+0  16032-2 0  9995
2 67590  97.2831 111.5273 0001591  98.2848 261.8600 15.80962129  3867
