CCSDS_OMM_VERS = 2.0
CREATION_DATE  = 
ORIGINATOR     = 

OBJECT_NAME    = STARLINK-36590
OBJECT_ID      = 2026-016S
CENTER_NAME    = EARTH
REF_FRAME      = TEME
TIME_SYSTEM    = UTC
MEAN_ELEMENT_THEORY = SGP/SGP4

EPOCH          = 2026-02-15T20:00:00.999360
MEAN_MOTION    = 15.75171482
ECCENTRICITY   = .0001621
INCLINATION    = 97.2849
RA_OF_ASC_NODE = 106.2248
ARG_OF_PERICENTER = 88.4952
MEAN_ANOMALY   = 203.8523

EPHEMERIS_TYPE = 0
CLASSIFICATION_TYPE = U
NORAD_CAT_ID   = 67577
ELEMENT_SET_NO = 999
REV_AT_EPOCH   = 453
BSTAR          = -.51537E-3
MEAN_MOTION_DOT = -.76259E-3
MEAN_MOTION_DDOT = 0

CCSDS_OMM_VERS = 2.0
CREATION_DATE  = 
ORIGINATOR     = 

OBJECT_NAME    = STARLINK-36613
OBJECT_ID      = 2026-016T
CENTER_NAME    = EARTH
REF_FRAME      = TEME
TIME_SYSTEM    = UTC
MEAN_ELEMENT_THEORY = SGP/SGP4

EPOCH          = 2026-02-15T18:29:35.290176
MEAN_MOTION    = 15.80949076
ECCENTRICITY   = .0001172
INCLINATION    = 97.2847
RA_OF_ASC_NODE = 106.1856
ARG_OF_PERICENTER = 111.3388
MEAN_ANOMALY   = 248.8005

EPHEMERIS_TYPE = 0
CLASSIFICATION_TYPE = U
NORAD_CAT_ID   = 67578
ELEMENT_SET_NO = 999
REV_AT_EPOCH   = 335
BSTAR          = .13597E-2
MEAN_MOTION_DOT = .270169E-2
MEAN_MOTION_DDOT = 0

CCSDS_OMM_VERS = 2.0
CREATION_DATE  = 
ORIGINATOR     = 

OBJECT_NAME    = STARLINK-36571
OBJECT_ID      = 2026-016U
CENTER_NAME    = EARTH
REF_FRAME      = TEME
TIME_SYSTEM    = UTC
MEAN_ELEMENT_THEORY = SGP/SGP4

EPOCH          = 2026-02-15T12:45:26.227584
MEAN_MOTION    = 15.75267538
ECCENTRICITY   = .00012488
INCLINATION    = 97.2846
RA_OF_ASC_NODE = 105.8990
ARG_OF_PERICENTER = 81.5277
MEAN_ANOMALY   = 278.6130

EPHEMERIS_TYPE = 0
CLASSIFICATION_TYPE = U
NORAD_CAT_ID   = 67579
ELEMENT_SET_NO = 999
REV_AT_EPOCH   = 331
BSTAR          = .12603024E-2
MEAN_MOTION_DOT = .192802E-2
MEAN_MOTION_DDOT = 0

CCSDS_OMM_VERS = 2.0
CREATION_DATE  = 
ORIGINATOR     = 

OBJECT_NAME    = STARLINK-36612
OBJECT_ID      = 2026-016V
CENTER_NAME    = EARTH
REF_FRAME      = TEME
TIME_SYSTEM    = UTC
MEAN_ELEMENT_THEORY = SGP/SGP4

EPOCH          = 2026-02-15T10:50:06.363456
MEAN_MOTION    = 15.80944801
ECCENTRICITY   = .00011655
INCLINATION    = 97.2843
RA_OF_ASC_NODE = 105.8545
ARG_OF_PERICENTER = 89.3841
MEAN_ANOMALY   = 270.7561

EPHEMERIS_TYPE = 0
CLASSIFICATION_TYPE = U
NORAD_CAT_ID   = 67580
ELEMENT_SET_NO = 999
REV_AT_EPOCH   = 330
BSTAR          = .15226045E-2
MEAN_MOTION_DOT = .303675E-2
MEAN_MOTION_DDOT = 0

CCSDS_OMM_VERS = 2.0
CREATION_DATE  = 
ORIGINATOR     = 

OBJECT_NAME    = STARLINK-36632
OBJECT_ID      = 2026-016W
CENTER_NAME    = EARTH
REF_FRAME      = TEME
TIME_SYSTEM    = UTC
MEAN_ELEMENT_THEORY = SGP/SGP4

EPOCH          = 2026-02-15T14:00:01.999872
MEAN_MOTION    = 15.75238719
ECCENTRICITY   = .00011736
INCLINATION    = 97.2849
RA_OF_ASC_NODE = 105.9816
ARG_OF_PERICENTER = 86.9247
MEAN_ANOMALY   = 274.7681

EPHEMERIS_TYPE = 0
CLASSIFICATION_TYPE = U
NORAD_CAT_ID   = 67581
ELEMENT_SET_NO = 999
REV_AT_EPOCH   = 449
BSTAR          = -.93401305E-3
MEAN_MOTION_DOT = -.137514E-2
MEAN_MOTION_DDOT = 0

CCSDS_OMM_VERS = 2.0
CREATION_DATE  = 
ORIGINATOR     = 

OBJECT_NAME    = STARLINK-36609
OBJECT_ID      = 2026-016X
CENTER_NAME    = EARTH
REF_FRAME      = TEME
TIME_SYSTEM    = UTC
MEAN_ELEMENT_THEORY = SGP/SGP4

EPOCH          = 2026-02-15T12:51:01.431936
MEAN_MOTION    = 15.75257841
ECCENTRICITY   = .0001093
INCLINATION    = 97.2848
RA_OF_ASC_NODE = 105.8933
ARG_OF_PERICENTER = 77.5809
MEAN_ANOMALY   = 282.5579

EPHEMERIS_TYPE = 0
CLASSIFICATION_TYPE = U
NORAD_CAT_ID   = 67582
ELEMENT_SET_NO = 999
REV_AT_EPOCH   = 331
BSTAR          = .88727283E-3
MEAN_MOTION_DOT = .134714E-2
MEAN_MOTION_DDOT = 0

CCSDS_OMM_VERS = 2.0
CREATION_DATE  = 
ORIGINATOR     = 

OBJECT_NAME    = STARLINK-36577
OBJECT_ID      = 2026-016Y
CENTER_NAME    = EARTH
REF_FRAME      = TEME
TIME_SYSTEM    = UTC
MEAN_ELEMENT_THEORY = SGP/SGP4

EPOCH          = 2026-02-15T10:47:58.935552
MEAN_MOTION    = 15.80956102
ECCENTRICITY   = .00013137
INCLINATION    = 97.2848
RA_OF_ASC_NODE = 105.8564
ARG_OF_PERICENTER = 90.7203
MEAN_ANOMALY   = 269.4216

EPHEMERIS_TYPE = 0
CLASSIFICATION_TYPE = U
NORAD_CAT_ID   = 67583
ELEMENT_SET_NO = 999
REV_AT_EPOCH   = 330
BSTAR          = .15908201E-2
MEAN_MOTION_DOT = .317976E-2
MEAN_MOTION_DDOT = 0

CCSDS_OMM_VERS = 2.0
CREATION_DATE  = 
ORIGINATOR     = 

OBJECT_NAME    = STARLINK-36419
OBJECT_ID      = 2026-016Z
CENTER_NAME    = EARTH
REF_FRAME      = TEME
TIME_SYSTEM    = UTC
MEAN_ELEMENT_THEORY = SGP/SGP4

EPOCH          = 2026-02-15T10:42:13.618944
MEAN_MOTION    = 15.80934281
ECCENTRICITY   = .0001058
INCLINATION    = 97.2836
RA_OF_ASC_NODE = 105.8618
ARG_OF_PERICENTER = 105.4714
MEAN_ANOMALY   = 254.6671

EPHEMERIS_TYPE = 0
CLASSIFICATION_TYPE = U
NORAD_CAT_ID   = 67584
ELEMENT_SET_NO = 999
REV_AT_EPOCH   = 330
BSTAR          = .14513604E-2
MEAN_MOTION_DOT = .288823E-2
MEAN_MOTION_DDOT = 0

CCSDS_OMM_VERS = 2.0
CREATION_DATE  = 
ORIGINATOR     = 

OBJECT_NAME    = STARLINK-36560
OBJECT_ID      = 2026-016AA
CENTER_NAME    = EARTH
REF_FRAME      = TEME
TIME_SYSTEM    = UTC
MEAN_ELEMENT_THEORY = SGP/SGP4

EPOCH          = 2026-02-15T10:39:44.975520
MEAN_MOTION    = 15.80910628
ECCENTRICITY   = .000087
INCLINATION    = 97.2837
RA_OF_ASC_NODE = 105.8641
ARG_OF_PERICENTER = 88.8883
MEAN_ANOMALY   = 271.2485

EPHEMERIS_TYPE = 0
CLASSIFICATION_TYPE = U
NORAD_CAT_ID   = 67585
ELEMENT_SET_NO = 999
REV_AT_EPOCH   = 330
BSTAR          = .12056552E-2
MEAN_MOTION_DOT = .238244E-2
MEAN_MOTION_DDOT = 0

CCSDS_OMM_VERS = 2.0
CREATION_DATE  = 
ORIGINATOR     = 

OBJECT_NAME    = NAVSTAR 85 (USA 581)
OBJECT_ID      = 2026-017A
CENTER_NAME    = EARTH
REF_FRAME      = TEME
TIME_SYSTEM    = UTC
MEAN_ELEMENT_THEORY = SGP/SGP4

EPOCH          = 2026-02-15T13:04:50.078784
MEAN_MOTION    = 2.00561312
ECCENTRICITY   = .00009027
INCLINATION    = 55.0067
RA_OF_ASC_NODE = 93.6366
ARG_OF_PERICENTER = 51.2369
MEAN_ANOMALY   = 308.8521

EPHEMERIS_TYPE = 0
CLASSIFICATION_TYPE = U
NORAD_CAT_ID   = 67588
ELEMENT_SET_NO = 999
REV_AT_EPOCH   = 42917
BSTAR          = 0
MEAN_MOTION_DOT = .17E-6
MEAN_MOTION_DDOT = 0

CCSDS_OMM_VERS = 2.0
CREATION_DATE  = 
ORIGINATOR     = 

OBJECT_NAME    = STARLINK-36641
OBJECT_ID      = 2026-018A
CENTER_NAME    = EARTH
REF_FRAME      = TEME
TIME_SYSTEM    = UTC
MEAN_ELEMENT_THEORY = SGP/SGP4

EPOCH          = 2026-02-15T20:00:00.999360
MEAN_MOTION    = 15.75121799
ECCENTRICITY   = .0001315
INCLINATION    = 97.2844
RA_OF_ASC_NODE = 111.5162
ARG_OF_PERICENTER = 83.2905
MEAN_ANOMALY   = 292.5092

EPHEMERIS_TYPE = 0
CLASSIFICATION_TYPE = U
NORAD_CAT_ID   = 67589
ELEMENT_SET_NO = 999
REV_AT_EPOCH   = 383
BSTAR          = .48711E-3
MEAN_MOTION_DOT = .72933E-3
MEAN_MOTION_DDOT = 0

CCSDS_OMM_VERS = 2.0
CREATION_DATE  = 
ORIGINATOR     = 

OBJECT_NAME    = STARLINK-36376
OBJECT_ID      = 2026-018B
CENTER_NAME    = EARTH
REF_FRAME      = TEME
TIME_SYSTEM    = UTC
MEAN_ELEMENT_THEORY = SGP/SGP4

EPOCH          = 2026-02-15T19:40:31.361952
MEAN_MOTION    = 15.80962129
ECCENTRICITY   = .0001591
INCLINATION    = 97.2831
RA_OF_ASC_NODE = 111.5273
ARG_OF_PERICENTER = 98.2848
MEAN_ANOMALY   = 261.8600

EPHEMERIS_TYPE = 0
CLASSIFICATION_TYPE = U
NORAD_CAT_ID   = 67590
ELEMENT_SET_NO = 999
REV_AT_EPOCH   = 386
BSTAR          = .16032E-2
MEAN_MOTION_DOT = .320645E-2
MEAN_MOTION_DDOT = 0

